0 RADIO 6
1 13002U 81120F   13282.50372890  .00000054  00000-0  46090-3 0  3005
2 13002 082.9624 340.2134 0050561 357.4199 135.5645 12.13769295409491
0 RADIO 6
1 13002U 81120F   13287.10915748 -.00000027  00000-0 -38045-3 0  3026
2 13002 082.9613 337.6693 0050416 347.7031 099.4135 12.13770004410051
0 RADIO 6
1 13002U 81120F   13289.16191802  .00000009  00000-0 -11246-5 0  3037
2 13002 082.9607 336.5351 0050362 343.3694 069.1496 12.13769574410302
0 RADIO 6
1 13002U 81120F   13291.47266331  .00000075  00000-0  68729-3 0  3043
2 13002 082.9603 335.2580 0050299 338.4856 086.1795 12.13769109410587
0 RADIO 6
1 13002U 81120F   13293.87560339  .00000066  00000-0  58956-3 0  3056
2 13002 082.9602 333.9298 0050241 333.3985 146.0663 12.13769357410878
0 RADIO 6
1 13002U 81120F   13296.18071193 -.00000001  00000-0 -10627-3 0  3063
2 13002 082.9601 332.6558 0050200 328.5115 138.4749 12.13770113411152
